{"type": "FeatureCollection", "features": [ {"type": "Feature", "properties": {"norad_id": 66595, "name": "STARLINK-35711", "group": "last-30-days", "lat": 32.31992434138773, "lon": 176.6854759503105, "alt_km": 408.58821458493003, "timestamp": "2025-12-22T18:58:52.136873+00:00", "meta": {"OBJECT_NAME": "STARLINK-35711", "OBJECT_ID": "2025-270H", "EPOCH": "2025-12-20T03:22:00.602400", "MEAN_MOTION": 15.5018184, "ECCENTRICITY": 0.00034215, "INCLINATION": 42.999, "RA_OF_ASC_NODE": 149.4265, "ARG_OF_PERICENTER": 341.0071, "MEAN_ANOMALY": 19.0661, "EPHEMERIS_TYPE": 0, "CLASSIFICATION_TYPE": "U", "NORAD_CAT_ID": 66595, "ELEMENT_SET_NO": 999, "REV_AT_EPOCH": 560, "BSTAR": 0.0012292638, "MEAN_MOTION_DOT": 0.00071426, "MEAN_MOTION_DDOT": 0}, "tle": {"line1": "1 66595U 25270H   25354.14028475  .00071426  00000+0  12293-2 0  9995", "line2": "2 66595  42.9990 149.4265 0003421 341.0071  19.0661 15.50181840  5600"}}, "geometry": {"type": "Point", "coordinates": [176.6854759503105, 32.31992434138773]}}, {"type": "Feature", "properties": {"norad_id": 66596, "name": "STARLINK-35811", "group": "last-30-days", "lat": 32.68801964846051, "lon": 178.3206699200943, "alt_km": 440.7874639844149, "timestamp": "2025-12-22T18:58:52.136884+00:00", "meta": {"OBJECT_NAME": "STARLINK-35811", "OBJECT_ID": "2025-270J", "EPOCH": "2025-12-21T17:51:42.369696", "MEAN_MOTION": 15.40729459, "ECCENTRICITY": 0.00045247, "INCLINATION": 43.0021, "RA_OF_ASC_NODE": 140.8369, "ARG_OF_PERICENTER": 268.1923, "MEAN_ANOMALY": 91.8415, "EPHEMERIS_TYPE": 0, "CLASSIFICATION_TYPE": "U", "NORAD_CAT_ID": 66596, "ELEMENT_SET_NO": 999, "REV_AT_EPOCH": 584, "BSTAR": 0.00087175988, "MEAN_MOTION_DOT": 0.0003633, "MEAN_MOTION_DDOT": 0}, "tle": {"line1": "1 66596U 25270J   25355.74424039  .00036330  00000+0  87176-3 0  9997", "line2": "2 66596  43.0021 140.8369 0004524 268.1923  91.8415 15.40729459  5842"}}, "geometry": {"type": "Point", "coordinates": [178.3206699200943, 32.68801964846051]}}, {"type": "Feature", "properties": {"norad_id": 66597, "name": "STARLINK-35820", "group": "last-30-days", "lat": 41.80081380888062, "lon": -118.95996055955152, "alt_km": 438.17685351209275, "timestamp": "2025-12-22T18:58:52.136894+00:00", "meta": {"OBJECT_NAME": "STARLINK-35820", "OBJECT_ID": "2025-270K", "EPOCH": "2025-12-22T02:58:55.668288", "MEAN_MOTION": 15.40756447, "ECCENTRICITY": 0.00015847, "INCLINATION": 43.0002, "RA_OF_ASC_NODE": 138.5226, "ARG_OF_PERICENTER": 276.1397, "MEAN_ANOMALY": 83.9279, "EPHEMERIS_TYPE": 0, "CLASSIFICATION_TYPE": "U", "NORAD_CAT_ID": 66597, "ELEMENT_SET_NO": 999, "REV_AT_EPOCH": 590, "BSTAR": 0.00081168102, "MEAN_MOTION_DOT": 0.00033816, "MEAN_MOTION_DDOT": 0}, "tle": {"line1": "1 66597U 25270K   25356.12425542  .00033816  00000+0  81168-3 0  9992", "line2": "2 66597  43.0002 138.5226 0001584 276.1397  83.9279 15.40756447  5909"}}, "geometry": {"type": "Point", "coordinates": [-118.95996055955152, 41.80081380888062]}}, {"type": "Feature", "properties": {"norad_id": 66598, "name": "STARLINK-35981", "group": "last-30-days", "lat": -6.264414723549335, "lon": -38.765903459085024, "alt_km": 443.8148843205263, "timestamp": "2025-12-22T18:58:52.136905+00:00", "meta": {"OBJECT_NAME": "STARLINK-35981", "OBJECT_ID": "2025-270L", "EPOCH": "2025-12-22T02:36:22.705632", "MEAN_MOTION": 15.40764847, "ECCENTRICITY": 0.00020396, "INCLINATION": 42.9995, "RA_OF_ASC_NODE": 138.4022, "ARG_OF_PERICENTER": 262.1387, "MEAN_ANOMALY": 97.9238, "EPHEMERIS_TYPE": 0, "CLASSIFICATION_TYPE": "U", "NORAD_CAT_ID": 66598, "ELEMENT_SET_NO": 999, "REV_AT_EPOCH": 564, "BSTAR": 0.0017074558, "MEAN_MOTION_DOT": 0.00071852, "MEAN_MOTION_DDOT": 0}, "tle": {"line1": "1 66598U 25270L   25356.10859613  .00071852  00000+0  17075-2 0  9998", "line2": "2 66598  42.9995 138.4022 0002039 262.1387  97.9238 15.40764847  5646"}}, "geometry": {"type": "Point", "coordinates": [-38.765903459085024, -6.264414723549335]}}, {"type": "Feature", "properties": {"norad_id": 66599, "name": "STARLINK-35930", "group": "last-30-days", "lat": 35.55619549198225, "lon": -176.0018239500865, "alt_km": 409.373516209168, "timestamp": "2025-12-22T18:58:52.136918+00:00", "meta": {"OBJECT_NAME": "STARLINK-35930", "OBJECT_ID": "2025-270M", "EPOCH": "2025-12-19T04:08:36.625632", "MEAN_MOTION": 15.50348464, "ECCENTRICITY": 0.0002903, "INCLINATION": 42.9985, "RA_OF_ASC_NODE": 155.067, "ARG_OF_PERICENTER": 324.189, "MEAN_ANOMALY": 35.8775, "EPHEMERIS_TYPE": 0, "CLASSIFICATION_TYPE": "U", "NORAD_CAT_ID": 66599, "ELEMENT_SET_NO": 999, "REV_AT_EPOCH": 534, "BSTAR": -2.964998e-06, "MEAN_MOTION_DOT": -5.14e-06, "MEAN_MOTION_DDOT": 0}, "tle": {"line1": "1 66599U 25270M   25353.17264613 -.00000514  00000+0 -29650-5 0  9997", "line2": "2 66599  42.9985 155.0670 0002903 324.1890  35.8775 15.50348464  5346"}}, "geometry": {"type": "Point", "coordinates": [-176.0018239500865, 35.55619549198225]}}, {"type": "Feature", "properties": {"norad_id": 66600, "name": "STARLINK-35980", "group": "last-30-days", "lat": -35.739405441039885, "lon": 4.902836629054654, "alt_km": 445.89645732555255, "timestamp": "2025-12-22T18:58:52.136929+00:00", "meta": {"OBJECT_NAME": "STARLINK-35980", "OBJECT_ID": "2025-270N", "EPOCH": "2025-12-22T02:23:26.952864", "MEAN_MOTION": 15.40740661, "ECCENTRICITY": 0.00017659, "INCLINATION": 43.0005, "RA_OF_ASC_NODE": 138.3333, "ARG_OF_PERICENTER": 279.2543, "MEAN_ANOMALY": 80.8113, "EPHEMERIS_TYPE": 0, "CLASSIFICATION_TYPE": "U", "NORAD_CAT_ID": 66600, "ELEMENT_SET_NO": 999, "REV_AT_EPOCH": 569, "BSTAR": 0.0012736093, "MEAN_MOTION_DOT": 0.00053344, "MEAN_MOTION_DDOT": 0}, "tle": {"line1": "1 66600U 25270N   25356.09961751  .00053344  00000+0  12736-2 0  9992", "line2": "2 66600  43.0005 138.3333 0001765 279.2543  80.8113 15.40740661  5692"}}, "geometry": {"type": "Point", "coordinates": [4.902836629054654, -35.739405441039885]}}, {"type": "Feature", "properties": {"norad_id": 66601, "name": "STARLINK-35978", "group": "last-30-days", "lat": 26.37882579304283, "lon": -77.56554598212055, "alt_km": 440.6715183257911, "timestamp": "2025-12-22T18:58:52.136940+00:00", "meta": {"OBJECT_NAME": "STARLINK-35978", "OBJECT_ID": "2025-270P", "EPOCH": "2025-12-22T02:49:15.549312", "MEAN_MOTION": 15.40721204, "ECCENTRICITY": 0.00017877, "INCLINATION": 43.0003, "RA_OF_ASC_NODE": 138.4704, "ARG_OF_PERICENTER": 276.1472, "MEAN_ANOMALY": 83.9181, "EPHEMERIS_TYPE": 0, "CLASSIFICATION_TYPE": "U", "NORAD_CAT_ID": 66601, "ELEMENT_SET_NO": 999, "REV_AT_EPOCH": 563, "BSTAR": 0.00044343693, "MEAN_MOTION_DOT": 0.00018277, "MEAN_MOTION_DDOT": 0}, "tle": {"line1": "1 66601U 25270P   25356.11754108  .00018277  00000+0  44344-3 0  9999", "line2": "2 66601  43.0003 138.4704 0001787 276.1472  83.9181 15.40721204  5630"}}, "geometry": {"type": "Point", "coordinates": [-77.56554598212055, 26.37882579304283]}}, {"type": "Feature", "properties": {"norad_id": 66602, "name": "STARLINK-36050", "group": "last-30-days", "lat": 38.11890938917377, "lon": -167.87760582820215, "alt_km": 439.76529193516853, "timestamp": "2025-12-22T18:58:52.136950+00:00", "meta": {"OBJECT_NAME": "STARLINK-36050", "OBJECT_ID": "2025-270Q", "EPOCH": "2025-12-21T19:21:49.081248", "MEAN_MOTION": 15.40749091, "ECCENTRICITY": 0.00034479, "INCLINATION": 43.001, "RA_OF_ASC_NODE": 140.4448, "ARG_OF_PERICENTER": 267.6242, "MEAN_ANOMALY": 92.422, "EPHEMERIS_TYPE": 0, "CLASSIFICATION_TYPE": "U", "NORAD_CAT_ID": 66602, "ELEMENT_SET_NO": 999, "REV_AT_EPOCH": 564, "BSTAR": 0.00045713662, "MEAN_MOTION_DOT": 0.00018872, "MEAN_MOTION_DDOT": 0}, "tle": {"line1": "1 66602U 25270Q   25355.80681807  .00018872  00000+0  45714-3 0  9993", "line2": "2 66602  43.0010 140.4448 0003447 267.6242  92.4220 15.40749091  5646"}}, "geometry": {"type": "Point", "coordinates": [-167.87760582820215, 38.11890938917377]}}, {"type": "Feature", "properties": {"norad_id": 66603, "name": "STARLINK-36048", "group": "last-30-days", "lat": 2.1957015051845525, "lon": -47.858942256406245, "alt_km": 443.5415888210391, "timestamp": "2025-12-22T18:58:52.136960+00:00", "meta": {"OBJECT_NAME": "STARLINK-36048", "OBJECT_ID": "2025-270R", "EPOCH": "2025-12-22T02:39:35.089920", "MEAN_MOTION": 15.40736443, "ECCENTRICITY": 6.622e-05, "INCLINATION": 42.9919, "RA_OF_ASC_NODE": 138.4206, "ARG_OF_PERICENTER": 310.2528, "MEAN_ANOMALY": 49.8271, "EPHEMERIS_TYPE": 0, "CLASSIFICATION_TYPE": "U", "NORAD_CAT_ID": 66603, "ELEMENT_SET_NO": 999, "REV_AT_EPOCH": 569, "BSTAR": 0.0012383358, "MEAN_MOTION_DOT": 0.0005184, "MEAN_MOTION_DDOT": 0}, "tle": {"line1": "1 66603U 25270R   25356.11082280  .00051840  00000+0  12383-2 0  9996", "line2": "2 66603  42.9919 138.4206 0000662 310.2528  49.8271 15.40736443  5694"}}, "geometry": {"type": "Point", "coordinates": [-47.858942256406245, 2.1957015051845525]}}, {"type": "Feature", "properties": {"norad_id": 66604, "name": "STARLINK-35977", "group": "last-30-days", "lat": -14.518861210074466, "lon": -29.423178497525402, "alt_km": 445.2702915966793, "timestamp": "2025-12-22T18:58:52.136970+00:00", "meta": {"OBJECT_NAME": "STARLINK-35977", "OBJECT_ID": "2025-270S", "EPOCH": "2025-12-22T02:33:07.972128", "MEAN_MOTION": 15.40714892, "ECCENTRICITY": 9.516e-05, "INCLINATION": 42.9963, "RA_OF_ASC_NODE": 138.3855, "ARG_OF_PERICENTER": 287.044, "MEAN_ANOMALY": 73.0313, "EPHEMERIS_TYPE": 0, "CLASSIFICATION_TYPE": "U", "NORAD_CAT_ID": 66604, "ELEMENT_SET_NO": 999, "REV_AT_EPOCH": 579, "BSTAR": 0.001028059, "MEAN_MOTION_DOT": 0.00042904, "MEAN_MOTION_DDOT": 0}, "tle": {"line1": "1 66604U 25270S   25356.10634227  .00042904  00000+0  10281-2 0  9996", "line2": "2 66604  42.9963 138.3855 0000951 287.0440  73.0313 15.40714892  5799"}}, "geometry": {"type": "Point", "coordinates": [-29.423178497525402, -14.518861210074466]}}]}